0 CZ-4 DEB
1 35323U 99057SB  13281.20303216  .00002776  00000-0  79442-3 0  2745
2 35323 098.2823 269.5942 0075991 212.0160 147.6222 14.44132471455975
0 CZ-4 DEB
1 35323U 99057SB  13283.21234168  .00002725  00000-0  78037-3 0  2751
2 35323 098.2797 271.5476 0075468 206.4518 153.2603 14.44142818456268
0 CZ-4 DEB
1 35323U 99057SB  13286.74591926  .00002704  00000-0  77299-3 0  2767
2 35323 098.2866 275.0031 0077065 192.8001 167.1363 14.44162041456774
0 CZ-4 DEB
1 35323U 99057SB  13288.75517879  .00002805  00000-0  80115-3 0  2779
2 35323 098.2843 276.9542 0076947 187.5292 172.4920 14.44175543457069
0 CZ-4 DEB
1 35323U 99057SB  13291.18012321  .00003006  00000-0  85706-3 0  2788
2 35323 098.2816 279.3097 0077128 182.3093 177.8469 14.44194294457415
0 CZ-4 DEB
1 35323U 99057SB  13293.18933144  .00003122  00000-0  89032-3 0  2791
2 35323 098.2806 281.2656 0075917 176.2894 183.9099 14.44208851457706
0 CZ-4 DEB
1 35323U 99057SB  13295.19852492  .00003301  00000-0  94047-3 0  2803
2 35323 098.2823 283.2276 0075854 169.4056 190.8949 14.44224836457992
